TEVEL2-7                
1 63238U 25052AE  26068.66113296  .00019244  00000+0  69668-3 0  9999
2 63238  97.4054 324.3041 0008104 124.6830 235.5175 15.28414096 54802
STARLINK-34720          
1 66449U 25259AD  26068.92288542  .00043748  00000+0  15887-2 0  9990
2 66449  42.9991 273.3072 0002116 251.1839 108.8783 15.27603998 19418
