[{"OBJECT_NAME":"TEVEL2-7","OBJECT_ID":"2025-052AE","EPOCH":"2026-03-09T15:52:01.887744","MEAN_MOTION":15.28414096,"ECCENTRICITY":0.00081048,"INCLINATION":97.4054,"RA_OF_ASC_NODE":324.3041,"ARG_OF_PERICENTER":124.683,"MEAN_ANOMALY":235.5175,"EPHEMERIS_TYPE":0,"CLASSIFICATION_TYPE":"U","NORAD_CAT_ID":63238,"ELEMENT_SET_NO":999,"REV_AT_EPOCH":5480,"BSTAR":0.00069668191,"MEAN_MOTION_DOT":0.00019244,"MEAN_MOTION_DDOT":0},{"OBJECT_NAME":"STARLINK-34720","OBJECT_ID":"2025-259AD","EPOCH":"2026-03-09T22:08:57.300288","MEAN_MOTION":15.27603998,"ECCENTRICITY":0.0002116,"INCLINATION":42.9991,"RA_OF_ASC_NODE":273.3072,"ARG_OF_PERICENTER":251.1839,"MEAN_ANOMALY":108.8783,"EPHEMERIS_TYPE":0,"CLASSIFICATION_TYPE":"U","NORAD_CAT_ID":66449,"ELEMENT_SET_NO":999,"REV_AT_EPOCH":1941,"BSTAR":0.0015886871,"MEAN_MOTION_DOT":0.00043748,"MEAN_MOTION_DDOT":0}]
